NORAD_CAT_ID,OBJECT_NAME,OBJECT_TYPE,EPOCH,MEAN_MOTION,ECCENTRICITY,INCLINATION,RA_OF_ASC_NODE,ARG_OF_PERICENTER,MEAN_ANOMALY,BSTAR,MEAN_MOTION_DOT,MEAN_MOTION_DDOT,TLE_LINE0,TLE_LINE1,TLE_LINE2,SEMIMAJOR_AXIS,PERIOD,APOGEE,PERIGEE,DECAYED
51779.0,STARLINK-3611,PAYLOAD,2024-01-14 21:53:58,15.0884593,0.000147,53.2161,262.1706,105.0593,255.0562,0.00011044,1.47e-05,0.0,0 STARLINK-3611,1 51779U 22017M   24014.91248034  .00001470  00000-0  11044-3 0  9998,2 51779  53.2161 262.1706 0001470 105.0593 255.0562 15.08845930104090,6917.862,95.437,540.744,538.71,0.0
51779.0,STARLINK-3611,PAYLOAD,2024-01-14 23:29:21,15.08846393,0.0001446,53.216,261.8737,102.1689,257.9465,0.00015765,2.222e-05,0.0,0 STARLINK-3611,1 51779U 22017M   24014.97872016  .00002222  00000-0  15765-3 0  9997,2 51779  53.2160 261.8737 0001446 102.1689 257.9465 15.08846393105599,6917.861,95.437,540.726,538.726,0.0
51779.0,STARLINK-3611,PAYLOAD,2024-01-15 15:23:13,15.08839678,0.0001514,53.2159,258.903,92.9905,267.1261,8.562e-05,1.075e-05,0.0,0 STARLINK-3611,1 51779U 22017M   24015.64112374  .00001075  00000-0  85620-4 0  9999,2 51779  53.2159 258.9030 0001514  92.9905 267.1261 15.08839678105699,6917.881,95.438,540.794,538.699,0.0
51779.0,STARLINK-3611,PAYLOAD,2024-01-15 20:09:23,15.08811225,0.0001701,53.2163,258.0113,92.0526,268.0661,0.00084895,0.00013238,0.0,0 STARLINK-3611,1 51779U 22017M   24015.83985701  .00013238  00000-0  84895-3 0  9998,2 51779  53.2163 258.0113 0001701  92.0526 268.0661 15.08811225104236,6917.968,95.439,541.01,538.657,0.0
51779.0,STARLINK-3611,PAYLOAD,2024-01-15 23:20:08,15.08845299,0.0001377,53.2158,257.4152,92.9291,267.1859,5.9108e-05,6.53e-06,0.0,0 STARLINK-3611,1 51779U 22017M   24015.97231979  .00000653  00000-0  59108-4 0  9991,2 51779  53.2158 257.4152 0001377  92.9291 267.1859 15.08845299104252,6917.864,95.437,540.682,538.777,0.0
51779.0,STARLINK-3611,PAYLOAD,2024-01-16 20:00:09,15.0883888,0.0001575,53.2162,253.5511,73.6951,286.4214,2.2787e-05,7.5e-07,0.0,0 STARLINK-3611,1 51779U 22017M   24016.83344587  .00000075  00000-0  22787-4 0  9998,2 51779  53.2162 253.5511 0001575  73.6951 286.4214 15.08838880105878,6917.884,95.438,540.838,538.659,0.0
51779.0,STARLINK-3611,PAYLOAD,2024-01-16 21:35:32,15.08838665,0.0001565,53.2161,253.2537,74.0433,286.0732,2.0165e-05,3.3e-07,0.0,0 STARLINK-3611,1 51779U 22017M   24016.89968589  .00000033  00000-0  20165-4 0  9990,2 51779  53.2161 253.2537 0001565  74.0433 286.0732 15.08838665104399,6917.884,95.438,540.832,538.667,0.0
51779.0,STARLINK-3611,PAYLOAD,2024-01-16 23:10:55,15.08839532,0.0001541,53.2161,252.9564,70.1734,289.9424,2.9466e-05,1.81e-06,0.0,0 STARLINK-3611,1 51779U 22017M   24016.96592555  .00000181  00000-0  29466-4 0  9991,2 51779  53.2161 252.9564 0001541  70.1734 289.9424 15.08839532104406,6917.882,95.438,540.813,538.681,0.0
51779.0,STARLINK-3611,PAYLOAD,2024-01-17 21:26:20,15.08838197,0.0001834,53.217,248.793,60.0327,300.0847,5.739e-05,6.25e-06,0.0,0 STARLINK-3611,1 51779U 22017M   24017.89329210  .00000625  00000-0  57390-4 0  9990,2 51779  53.2170 248.7930 0001834  60.0327 300.0847 15.08838197104542,6917.886,95.438,541.02,538.482,0.0
51779.0,STARLINK-3611,PAYLOAD,2024-01-18 00:37:06,15.08843486,0.0001811,53.2175,248.1976,64.376,295.7419,8.4621e-05,1.059e-05,0.0,0 STARLINK-3611,1 51779U 22017M   24018.02576759  .00001059  00000-0  84621-4 0  9997,2 51779  53.2175 248.1976 0001811  64.3760 295.7419 15.08843486106054,6917.87,95.437,540.988,538.482,0.0
51779.0,STARLINK-3611,PAYLOAD,2024-01-18 21:17:07,15.08813117,0.0001758,53.2181,244.3268,66.1036,294.014,0.00054071,8.322e-05,0.0,0 STARLINK-3611,1 51779U 22017M   24018.88689348  .00008322  00000-0  54071-3 0  9995,2 51779  53.2181 244.3268 0001758  66.1036 294.0140 15.08813117104698,6917.963,95.439,541.044,538.611,0.0
51779.0,STARLINK-3611,PAYLOAD,2024-01-19 00:27:53,15.08848303,0.0001927,53.218,243.7314,65.7486,294.3707,6.9762e-05,8.23e-06,0.0,0 STARLINK-3611,1 51779U 22017M   24019.01936505  .00000823  00000-0  69762-4 0  9993,2 51779  53.2180 243.7314 0001927  65.7486 294.3707 15.08848303104714,6917.855,95.437,541.053,538.387,0.0
51779.0,STARLINK-3611,PAYLOAD,2024-01-19 19:32:30,15.08842338,0.0001416,53.2166,240.1636,104.6949,255.42,3.4861e-05,2.67e-06,0.0,0 STARLINK-3611,1 51779U 22017M   24019.81424716  .00000267  00000-0  34861-4 0  9991,2 51779  53.2166 240.1636 0001416 104.6949 255.4200 15.08842338106323,6917.873,95.437,540.718,538.759,0.0
51779.0,STARLINK-3611,PAYLOAD,2024-01-19 21:07:53,15.08844938,0.0001486,53.2163,239.8649,109.2406,250.8747,5.6068e-05,6.05e-06,0.0,0 STARLINK-3611,1 51779U 22017M   24019.88048415  .00000605  00000-0  56068-4 0  9995,2 51779  53.2163 239.8649 0001486 109.2406 250.8747 15.08844938104843,6917.865,95.437,540.758,538.702,0.0
51779.0,STARLINK-3611,PAYLOAD,2024-01-20 14:37:08,15.08839878,0.0001316,53.2149,236.6002,89.1229,270.9914,3.3207e-05,2.41e-06,0.0,0 STARLINK-3611,1 51779U 22017M   24020.60912983  .00000241  00000-0  33207-4 0  9993,2 51779  53.2149 236.6002 0001316  89.1229 270.9914 15.08839878104954,6917.881,95.438,540.656,538.835,0.0
51779.0,STARLINK-3611,PAYLOAD,2024-01-20 19:23:18,15.08841995,0.0001351,53.2155,235.7061,101.2208,258.8936,-4.3709e-06,-3.57e-06,0.0,0 STARLINK-3611,1 51779U 22017M   24020.80784903 -.00000357  00000-0 -43709-5 0  9993,2 51779  53.2155 235.7061 0001351 101.2208 258.8936 15.08841995104983,6917.874,95.437,540.674,538.805,0.0
51779.0,STARLINK-3611,PAYLOAD,2024-01-21 19:14:05,15.08840987,0.000136,53.2154,231.2454,97.1659,262.9487,6.2467e-05,7.06e-06,0.0,0 STARLINK-3611,1 51779U 22017M   24021.80144832  .00000706  00000-0  62467-4 0  9992,2 51779  53.2154 231.2454 0001360  97.1659 262.9487 15.08840987106622,6917.877,95.437,540.683,538.802,0.0
51779.0,STARLINK-3611,PAYLOAD,2024-01-21 20:49:28,15.08841641,0.0001363,53.2154,230.9481,97.1483,262.9664,6.4827e-05,7.44e-06,0.0,0 STARLINK-3611,1 51779U 22017M   24021.86768736  .00000744  00000-0  64827-4 0  9997,2 51779  53.2154 230.9481 0001363  97.1483 262.9664 15.08841641105147,6917.875,95.437,540.683,538.797,0.0
51779.0,STARLINK-3611,PAYLOAD,2024-01-22 19:04:52,15.08835137,0.0001352,53.2155,226.7836,100.1001,260.0144,3.4017e-05,2.53e-06,0.0,0 STARLINK-3611,1 51779U 22017M   24022.79505435  .00000253  00000-0  34017-4 0  9998,2 51779  53.2155 226.7836 0001352 100.1001 260.0144 15.08835137106779,6917.895,95.438,540.696,538.825,0.0
51779.0,STARLINK-3611,PAYLOAD,2024-01-23 03:01:47,15.08848045,0.0001424,53.2151,225.2987,110.9768,249.1376,-0.00010279,-1.924e-05,0.0,0 STARLINK-3611,1 51779U 22017M   24023.12624935 -.00001924  00000-0 -10279-3 0  9994,2 51779  53.2151 225.2987 0001424 110.9768 249.1376 15.08848045106828,6917.856,95.437,540.706,538.736,0.0
51779.0,STARLINK-3611,PAYLOAD,2024-01-23 04:37:11,15.08838327,0.0001296,53.2151,225.0013,91.3397,268.7744,6.1148e-05,6.85e-06,0.0,0 STARLINK-3611,1 51779U 22017M   24023.19249314  .00000685  00000-0  61148-4 0  9998,2 51779  53.2151 225.0013 0001296  91.3397 268.7744 15.08838327106832,6917.886,95.438,540.647,538.854,0.0
51779.0,STARLINK-3611,PAYLOAD,2024-01-23 22:06:25,15.08845304,0.0001322,53.2157,221.7299,91.1388,268.9756,8.1472e-05,1.009e-05,0.0,0 STARLINK-3611,1 51779U 22017M   24023.92112812  .00001009  00000-0  81472-4 0  9994,2 51779  53.2157 221.7299 0001322  91.1388 268.9756 15.08845304105450,6917.864,95.437,540.644,538.815,0.0
51779.0,STARLINK-3611,PAYLOAD,2024-01-24 14:00:17,15.08839769,0.0001349,53.2155,218.7563,90.3949,269.7198,0.00011634,1.564e-05,0.0,0 STARLINK-3611,1 51779U 22017M   24024.58353318  .00001564  00000-0  11634-3 0  9993,2 51779  53.2155 218.7563 0001349  90.3949 269.7198 15.08839769105559,6917.881,95.438,540.679,538.813,0.0
51779.0,STARLINK-3611,PAYLOAD,2024-01-24 20:21:49,15.08842472,0.0001358,53.2143,217.5667,91.1587,268.9561,0.00013245,1.821e-05,0.0,0 STARLINK-3611,1 51779U 22017M   24024.84849069  .00001821  00000-0  13245-3 0  9991,2 51779  53.2143 217.5667 0001358  91.1587 268.9561 15.08842472107085,6917.873,95.437,540.677,538.798,0.0
51779.0,STARLINK-3611,PAYLOAD,2024-01-24 21:57:12,15.08844572,0.0001333,53.2145,217.2697,88.5424,271.572,0.00016242,2.298e-05,0.0,0 STARLINK-3611,1 51779U 22017M   24024.91472984  .00002298  00000-0  16242-3 0  9996,2 51779  53.2145 217.2697 0001333  88.5424 271.5720 15.08844572105606,6917.866,95.437,540.654,538.809,0.0
51779.0,STARLINK-3611,PAYLOAD,2024-01-25 20:12:36,15.08841211,0.0001328,53.2145,213.1064,87.4761,272.6383,7.12e-05,8.45e-06,0.0,0 STARLINK-3611,1 51779U 22017M   24025.84209351  .00000845  00000-0  71200-4 0  9997,2 51779  53.2145 213.1064 0001328  87.4761 272.6383 15.08841211107230,6917.877,95.437,540.66,538.823,0.0
51779.0,STARLINK-3611,PAYLOAD,2024-01-27 18:18:47,15.08845042,0.0001208,53.2151,204.4802,94.9735,265.1395,0.00017365,2.477e-05,0.0,0 STARLINK-3611,1 51779U 22017M   24027.76305182  .00002477  00000-0  17365-3 0  9993,2 51779  53.2151 204.4802 0001208  94.9735 265.1395 15.08845042107529,6917.865,95.437,540.566,538.894,0.0
51779.0,STARLINK-3611,PAYLOAD,2024-01-27 21:29:33,15.08843469,0.0001187,53.2146,203.8868,95.1885,264.9243,0.00013495,1.861e-05,0.0,0 STARLINK-3611,1 51779U 22017M   24027.89553175  .00001861  00000-0  13495-3 0  9990,2 51779  53.2146 203.8868 0001187  95.1885 264.9243 15.08843469106050,6917.87,95.437,540.556,538.914,0.0
51779.0,STARLINK-3611,PAYLOAD,2024-01-28 11:48:02,15.08835517,0.000145,53.2161,201.2085,89.9211,270.1947,0.0001404,1.947e-05,0.0,0 STARLINK-3611,1 51779U 22017M   24028.49169496  .00001947  00000-0  14040-3 0  9998,2 51779  53.2161 201.2085 0001450  89.9211 270.1947 15.08835517107637,6917.894,95.438,540.762,538.756,0.0
51779.0,STARLINK-3611,PAYLOAD,2024-01-28 14:58:48,15.08837186,0.0001411,53.2157,200.614,94.4276,265.6877,0.00015042,2.107e-05,0.0,0 STARLINK-3611,1 51779U 22017M   24028.62417434  .00002107  00000-0  15042-3 0  9993,2 51779  53.2157 200.6140 0001411  94.4276 265.6877 15.08837186106168,6917.889,95.438,540.73,538.778,0.0
